{"type": "FeatureCollection", "crs": {"type": "name", "properties": {"name": "urn:ogc:def:crs:OGC:1.3:CRS84"}}, "features": [{"type": "Feature", "properties": {}, "geometry": {"type": "Polygon", "coordinates": [[[21.748257665172186, 38.260249327575494], [21.74941979149317, 38.26386483168523], [21.75148579384159, 38.266554938909735], [21.75236814901123, 38.266404292905165], [21.758673760345467, 38.27527088631713], [21.778537512091212, 38.29044309106334], [21.77685888518312, 38.29154065481093], [21.776880406040917, 38.292552135127345], [21.78028070157269, 38.29143305052195], [21.785682436879497, 38.2944244497556], [21.776320863738217, 38.2987931838882], [21.7726192761973, 38.301504811970496], [21.7737168399449, 38.30329104316757], [21.777805802926146, 38.30647613012138], [21.778386866086638, 38.30959665450181], [21.7791400961095, 38.3096181753596], [21.781894765907392, 38.306217879827834], [21.78680152148489, 38.30415187747941], [21.791277859906465, 38.30036420650731], [21.794376863429097, 38.29922360104412], [21.796830241217844, 38.30049333165408], [21.797820200676462, 38.30019203964494], [21.801607871648564, 38.29702847354892], [21.80294216483192, 38.29377882402172], [21.791665235346795, 38.28751625440307], [21.792655194805413, 38.28545025205465], [21.79196652735594, 38.28461093860061], [21.789620753856173, 38.28430964659146], [21.79239694451186, 38.28022068361021], [21.78768387665453, 38.278434452413144], [21.785574832590516, 38.2819423522339], [21.783035371370584, 38.28170562279814], [21.780022451279137, 38.282501894536594], [21.77115585786717, 38.281899310518305], [21.767045374028125, 38.27886486956907], [21.759835886666455, 38.27238709137246], [21.75860919777208, 38.270105880446074], [21.760309345537966, 38.26956785900118], [21.759986532671025, 38.26849181611137], [21.758221822331752, 38.269029837556275], [21.75736098801991, 38.26644733462075], [21.755338027387083, 38.26519912486858], [21.754003734203728, 38.26362810224947], [21.754283505355076, 38.26205707963036], [21.75387460905695, 38.261476016469864], [21.75256183673139, 38.26111016188733], [21.750969293254485, 38.259151763827894], [21.748257665172186, 38.260249327575494]]]}}]}