{"type": "FeatureCollection", "features": [{"type": "Feature", "properties": {"name": "AOI"}, "geometry": {"type": "Polygon", "coordinates": [[[3.7982033203599053, 51.18834623707522], [3.8032467082349766, 51.18608077702994], [3.8032467082349766, 51.18245604095749], [3.827022679646026, 51.186533869038996], [3.8363889714140154, 51.18245604095749], [3.829184131592485, 51.16841018867675], [3.8443142952176985, 51.156629796441294], [3.84935768309277, 51.14756795626017], [3.837109455396168, 51.14756795626017], [3.8198178398244957, 51.141677760142436], [3.823420259735261, 51.13216282795226], [3.816935903895884, 51.12853809187981], [3.821258807788802, 51.12581953982547], [3.81837687186019, 51.12083552772585], [3.8090105800922007, 51.11766388366246], [3.8090105800922007, 51.11403914759001], [3.801085256288517, 51.10996131950851], [3.789557512574069, 51.10860204348134], [3.78739606062761, 51.104524215399834], [3.788837028591916, 51.09818092727305], [3.796762352395599, 51.09772783526399], [3.7982033203599053, 51.09410309919154], [3.79460090044914, 51.09183763914626], [3.8111720320386597, 51.07416705079307], [3.78019122080608, 51.06329284257573], [3.7650610571808665, 51.062386658557614], [3.7592971853236423, 51.057402646457994], [3.7614586372701013, 51.0542310023946], [3.7571357333771833, 51.05151245034026], [3.790277996556222, 51.04652843824065], [3.793159932484834, 51.037919690068584], [3.789557512574069, 51.03157640194179], [3.7672225091273255, 51.025233113815005], [3.7636200892165603, 51.01888982568822], [3.7448875056805817, 51.02704548185123], [3.7427260537341227, 51.015265089615774], [3.7384031498412047, 51.01118726153427], [3.749930893555653, 51.008015617470875], [3.745607989662735, 51.00665634144371], [3.7448875056805817, 51.00167232934409], [3.7304778260375215, 51.003031605371255], [3.7247139541802974, 51.00031305331692], [3.7247139541802974, 50.993063581172024], [3.711745242501543, 50.97947082090034], [3.7023789507335536, 50.98264246496373], [3.7045404026800126, 50.98717338505429], [3.6937331429477176, 50.9953290412173], [3.680764431268963, 50.998500685280696], [3.6634728156972907, 51.01435890559766], [3.6584294278222194, 51.00846870947993], [3.6519450719828424, 51.00710943345276], [3.650504104018536, 51.015265089615774], [3.6555474918936075, 51.01888982568822], [3.6454607161434653, 51.025233113815005], [3.640417328268394, 51.02160837774256], [3.633932972429017, 51.030217125914625], [3.6137594209287323, 51.034748046005184], [3.599349741285672, 51.02251456176067], [3.57989667376754, 51.030217125914625], [3.5863810296069176, 51.03927896609575], [3.5914244174819885, 51.040185150113864], [3.589983449517683, 51.04426297819537], [3.5971882893392126, 51.04970008230404], [3.602231677214284, 51.047887714267816], [3.610157001017967, 51.055137186412715], [3.607995549071508, 51.05694955444894], [3.612318452964426, 51.05921501449422], [3.6115979689822733, 51.06374593458478], [3.601511193232131, 51.06601139463006], [3.6130389369465794, 51.07688560284741], [3.6188028088038036, 51.07779178686552], [3.6238461966788744, 51.07416705079307], [3.6353739403933227, 51.084135074992304], [3.640417328268394, 51.08368198298325], [3.641137812250547, 51.07869797088363], [3.654827007911454, 51.082322706956084], [3.6598703957865255, 51.07824487887458], [3.667075235608056, 51.08277579896514], [3.6598703957865255, 51.08775981106476], [3.6901307230369524, 51.09410309919154], [3.750651377537806, 51.11902315968963], [3.7693839610737845, 51.133975195988484], [3.7773092848774676, 51.14711486425111], [3.75641524939503, 51.14484940420583], [3.764340573198713, 51.16025453251374], [3.7636200892165603, 51.16523854461336], [3.790277996556222, 51.1720349247492], [3.792439448502681, 51.17701893684882], [3.789557512574069, 51.18019058091221], [3.7982033203599053, 51.18834623707522]]]}}]}