{"type": "FeatureCollection", "features": [{"type": "Feature", "properties": {"name": "AOI"}, "geometry": {"type": "Polygon", "coordinates": [[[21.853336747464095, 38.34193413736011], [21.877518236759858, 38.332440479209865], [21.876366737269585, 38.31752187354519], [21.88557873319178, 38.30124703100191], [21.905729974271583, 38.29220545181119], [21.932790212293032, 38.29039713597305], [21.944305207195775, 38.27638268822745], [21.94200220821523, 38.271409819672556], [21.92703271484166, 38.265080714239055], [21.913790470703503, 38.263272398400915], [21.90860872299727, 38.239312213545524], [21.90457847478131, 38.23298310811203], [21.882699984466093, 38.21851658140689], [21.8734879885439, 38.19274808071336], [21.872336489053623, 38.18415858048218], [21.88385148395637, 38.174212843372395], [21.89997247682021, 38.14618394788119], [21.897669477839663, 38.127196631580695], [21.87924548599527, 38.11770297343045], [21.878669736250135, 38.10640099944205], [21.886154482936917, 38.097359420251344], [21.882699984466093, 38.09193447273692], [21.86485174236684, 38.091482393777376], [21.855063996699506, 38.09419486753459], [21.845852000777313, 38.09781149921088], [21.826852259187785, 38.11182594695648], [21.796337522695513, 38.11951128926859], [21.79230727447955, 38.1222237630258], [21.790004275499, 38.134881973892796], [21.785974027283043, 38.137142368690476], [21.768701534928926, 38.13262157909512], [21.737611048691516, 38.13262157909512], [21.733580800475554, 38.12990910533791], [21.73300505073042, 38.122675841985334], [21.718611307101988, 38.115442578632766], [21.715156808631164, 38.11227802591602], [21.713429559395752, 38.10278436776577], [21.703066063983282, 38.0955511044132], [21.67255132749101, 38.10278436776577], [21.654703085391755, 38.11182594695648], [21.636854843292504, 38.1082093152802], [21.628218597115445, 38.113634262794626], [21.61900660119325, 38.11273010487555], [21.617855101702975, 38.115442578632766], [21.624188348899484, 38.12584039470209], [21.617855101702975, 38.13216950013558], [21.61324910374188, 38.14799226371933], [21.63570334380223, 38.16110255354587], [21.650672837175797, 38.166527501060294], [21.66218783207854, 38.175569080251], [21.669096829020187, 38.18641897527986], [21.700763065002736, 38.206310449499426], [21.704793313218694, 38.217612423487815], [21.712853809650618, 38.228010239557136], [21.717459807611714, 38.24247676626228], [21.737611048691516, 38.27502645134884], [21.747398794358848, 38.28632842533723], [21.758338039516456, 38.28994505701352], [21.76409553696783, 38.304863662678194], [21.781368029321943, 38.317069794585656], [21.82339776071696, 38.32159058418101], [21.84182175256135, 38.33967374256243], [21.853336747464095, 38.34193413736011]]]}}]}