{"type": "FeatureCollection", "features": [{"type": "Feature", "properties": {"name": "AOI"}, "geometry": {"type": "Polygon", "coordinates": [[[3.798204391504458, 51.18834621440136], [3.8032476752404754, 51.18608071656632], [3.8032476752404754, 51.18245592003025], [3.8270231557102714, 51.18653381613333], [3.836389254077161, 51.18245592003025], [3.8291845630257075, 51.16840983345299], [3.8435939451286147, 51.157535443844786], [3.8493576979697774, 51.147567253370596], [3.8371097231823064, 51.147567253370596], [3.8198184646588182, 51.14167695899948], [3.823420810184545, 51.132161868092304], [3.816936588238237, 51.12853707155624], [3.8212594028691087, 51.125365374587176], [3.8183775264485273, 51.120834378917095], [3.809011428081638, 51.11766268194803], [3.809011428081638, 51.11403788541197], [3.8010862679250392, 51.10995998930889], [3.789558762242714, 51.108600690607865], [3.7873973549272777, 51.10497589407179], [3.788838293137568, 51.098179400566664], [3.796763453294167, 51.09772630099966], [3.798204391504458, 51.09410150446359], [3.7946020459787313, 51.09228910619556], [3.811172835397074, 51.074165123515215], [3.780192663875824, 51.06329073390701], [3.765062812667772, 51.062384534772995], [3.759299059826609, 51.0574004395359], [3.761460467142045, 51.05422874256684], [3.7564171834060276, 51.051963244731795], [3.790279231347859, 51.04652604992769], [3.7931611077684404, 51.03837025772154], [3.788838293137568, 51.03112066464941], [3.767224219983208, 51.025230370278294], [3.763621874457481, 51.01888697634018], [3.744889677723702, 51.02704276854633], [3.744169208618557, 51.01934007590718], [3.7384054557773942, 51.01118428370103], [3.7499329614597197, 51.00801258673197], [3.7456101468288474, 51.00665328803095], [3.744169208618557, 51.00166919279385], [3.7312007647259406, 51.003028491494874], [3.7247165427796327, 51.00030989409282], [3.7247165427796327, 50.99306030102069], [3.7117480988870164, 50.97992041357744], [3.7023820005201267, 50.98263901097949], [3.704543407835563, 50.98717000664958], [3.6937363712583826, 50.99532579885573], [3.6807679273657667, 50.99849749582479], [3.663476668842278, 51.01435598067009], [3.6584333851062607, 51.008465686298976], [3.6519491631599528, 51.00710638759795], [3.6490672867393714, 51.01254358240205], [3.6555515086856794, 51.01888697634018], [3.6454649412136444, 51.025230370278294], [3.6404216574776274, 51.02160557374223], [3.634657904636464, 51.02976136594838], [3.6159257079026856, 51.035198560752484], [3.597913980274052, 51.02251177287624], [3.579902252645418, 51.030214465515385], [3.5856660054865808, 51.03837025772154], [3.591429758327744, 51.040182655989575], [3.589988820117453, 51.04426055209265], [3.5971935111689066, 51.049697746896754], [3.602236794904924, 51.04833844819573], [3.6101619550615225, 51.05513494170086], [3.608000547746087, 51.0574004395359], [3.6123233623769586, 51.05921283780393], [3.6116028932718134, 51.06374383347402], [3.6015163257997784, 51.06600933130906], [3.613043831482104, 51.076883720917266], [3.618807584323267, 51.07778992005128], [3.623850868059284, 51.074165123515215], [3.636098842846755, 51.084133313989405], [3.6404216574776274, 51.083680214422394], [3.6411421265827726, 51.0786961191853], [3.654831039580534, 51.08232091572137], [3.6598743233165516, 51.07824301961829], [3.6670790143680048, 51.083680214422394], [3.6591538542114064, 51.08730501095846], [3.690134025732656, 51.09410150446359], [3.711027629781871, 51.10452279450479], [3.736244048461958, 51.111319288009916], [3.752814837880301, 51.120834378917095], [3.767224219983208, 51.132161868092304], [3.7765903183500975, 51.14575485510256], [3.7564171834060276, 51.144848655968545], [3.7643423435626264, 51.16070714081384], [3.763621874457481, 51.16523813648393], [3.790279231347859, 51.17203462998906], [3.7909997004530043, 51.18245592003025], [3.798204391504458, 51.18834621440136]]]}}]}