{"type": "FeatureCollection", "features": [{"type": "Feature", "properties": {"name": "AOI"}, "geometry": {"type": "Polygon", "coordinates": [[[174.789829706409, -41.143259645832735], [174.80579089895707, -41.14971525781004], [174.80333533087276, -41.1557097546461], [174.8113159271468, -41.15801533035228], [174.81070203512573, -41.16400982718834], [174.82973268777923, -41.15478752436363], [174.83157436384246, -41.14971525781004], [174.83464382394786, -41.152481948657446], [174.84139663617975, -41.14879302752756], [174.83955496011652, -41.15478752436363], [174.8561300446857, -41.16170425148216], [174.8616550728754, -41.15524863950486], [174.8714773452127, -41.1557097546461], [174.87577458936028, -41.14971525781004], [174.88007183350783, -41.151559718374976], [174.88314129361325, -41.147409682103856], [174.89541913403485, -41.152481948657446], [174.87945794148675, -41.17277101487182], [174.87945794148675, -41.177382166284175], [174.87577458936028, -41.176459936001706], [174.865952317023, -41.1879878145326], [174.86718010106514, -41.194904541651134], [174.86104118085433, -41.20182126876967], [174.86288285691757, -41.20458795961708], [174.85981339681217, -41.205510189899556], [174.85858561277, -41.21012134131191], [174.8616550728754, -41.215654723006736], [174.85735782872786, -41.223954795548984], [174.843238312243, -41.229027062102574], [174.81254371118897, -41.24977724345818], [174.79474084257762, -41.258077316000424], [174.79351305853547, -41.262227352271545], [174.7861463542825, -41.26499404311896], [174.79044359843007, -41.28113307306221], [174.78491857024034, -41.28205530334468], [174.78246300215602, -41.27928861249727], [174.7830768941771, -41.28159418820344], [174.7793935420506, -41.28205530334468], [174.7793935420506, -41.288049800180744], [174.78553246226141, -41.28851091532198], [174.78737413832465, -41.291277606169395], [174.79658251864086, -41.29081649102816], [174.8045631149149, -41.286205339615805], [174.80272143885168, -41.2926609515931], [174.80640479097815, -41.30326659984152], [174.79965197874628, -41.3055721755477], [174.79781030268302, -41.31248890266624], [174.8045631149149, -41.317100054078594], [174.8119298191679, -41.31433336323118], [174.8180687393787, -41.30234436955905], [174.81684095533652, -41.298655448429166], [174.82175209150518, -41.29681098786422], [174.82052430746302, -41.293583181875576], [174.82543544363165, -41.28436087905086], [174.82973268777923, -41.28897203046321], [174.83402993192678, -41.28897203046321], [174.83280214788462, -41.2926609515931], [174.8370993920322, -41.295427642440515], [174.83280214788462, -41.29681098786422], [174.83280214788462, -41.30833886639512], [174.827891011716, -41.317100054078594], [174.83894106809544, -41.3249390114796], [174.83832717607436, -41.331855738598136], [174.83157436384246, -41.33001127803319], [174.82666322767383, -41.33231685373937], [174.82052430746302, -41.34476696255273], [174.81991041544194, -41.342000271705324], [174.80947425108357, -41.34246138684656], [174.81070203512573, -41.3378502354342], [174.8045631149149, -41.33554465972802], [174.805177006936, -41.32908904775072], [174.79781030268302, -41.328627932609486], [174.79167138247223, -41.33231685373937], [174.7922852744933, -41.34661142311768], [174.78369078619818, -41.34246138684656], [174.77877965002952, -41.34568919283521], [174.77264072981873, -41.34338361712903], [174.767115701629, -41.34891699882386], [174.75913510535494, -41.34799476854138], [174.75913510535494, -41.34476696255273], [174.75299618514413, -41.34891699882386], [174.74869894099658, -41.347072538258914], [174.73273774844847, -41.34891699882386], [174.72721272025876, -41.357678186507336], [174.7198460160058, -41.35813930164857], [174.7167765559004, -41.36228933791969], [174.7130932037739, -41.357678186507336], [174.70449871547876, -41.3572170713661], [174.69529033516255, -41.34661142311768], [174.68301249474095, -41.347072538258914], [174.67687357453013, -41.33969469599914], [174.66091238198203, -41.34061692628161], [174.6560012458134, -41.33646689001049], [174.65538735379232, -41.331855738598136], [174.64802064953935, -41.33001127803319], [174.64863454156043, -41.326322356903304], [174.63083167294909, -41.31479447837241], [174.63083167294909, -41.295427642440515], [174.61916772454856, -41.296349872722985], [174.61487048040098, -41.291277606169395], [174.61487048040098, -41.2732941156612], [174.62039550859072, -41.269605194531316], [174.62223718465395, -41.261305121989075], [174.64188172932853, -41.24378274662212], [174.64495118943395, -41.23778824978605], [174.6492484335815, -41.24424386176335], [174.65231789368693, -41.24424386176335], [174.6560012458134, -41.23824936492729], [174.65968459793987, -41.2410160557747], [174.65968459793987, -41.24516609204582], [174.6652096261296, -41.24654943746953], [174.67625968250906, -41.23502155893864], [174.690993091015, -41.23087152266752], [174.6940625511204, -41.2202658744191], [174.7032709314366, -41.215654723006736], [174.70511260749984, -41.21842141385415], [174.71432098781605, -41.21934364413662], [174.7223015840901, -41.199054577922254], [174.72844050430092, -41.19352119622742], [174.72844050430092, -41.18752669939136], [174.73949056068037, -41.180609972272826], [174.74010445270144, -41.172309899730585], [174.75176840110197, -41.17138766944811], [174.75974899737602, -41.16723763317699], [174.76834348567115, -41.15294306379868], [174.77755186598736, -41.144181876115205], [174.78737413832465, -41.14787079724509], [174.789829706409, -41.143259645832735]]]}}]}