{"type": "FeatureCollection", "crs": {"type": "name", "properties": {"name": "urn:ogc:def:crs:OGC:1.3:CRS84"}}, "features": [{"type": "Feature", "properties": {}, "geometry": {"type": "Polygon", "coordinates": [[[174.77150864118727, -41.313311000045076], [174.77125127709851, -41.31174771109928], [174.77163069881524, -41.31076008660848], [174.77095030643784, -41.31033821448773], [174.76953105353758, -41.30998174548205], [174.7662719030236, -41.31050019035717], [174.76580165571403, -41.30945356540149], [174.7666131685458, -41.308981743028646], [174.76597985968212, -41.30853209672646], [174.76683793316295, -41.30757316955139], [174.76676843000402, -41.30455682466503], [174.76597730772343, -41.30356916840671], [174.76407302561663, -41.30382355582054], [174.76351389963264, -41.30302147702044], [174.7604311582693, -41.30387031869473], [174.75883566595851, -41.303615491634694], [174.75844414733848, -41.30460326056274], [174.75461876046518, -41.30359880007778], [174.75383147046455, -41.30452953687404], [174.75231183816624, -41.30487694626765], [174.75111350006844, -41.30473305758669], [174.74942688128013, -41.303749902254516], [174.74962051732862, -41.30250396275848], [174.74908073657534, -41.30197173514699], [174.7497602275219, -41.301475015886105], [174.74977765083216, -41.298106050832594], [174.7519607969072, -41.29622635543408], [174.7517125218825, -41.295428491865835], [174.75332009069535, -41.294359173182045], [174.75309797134855, -41.294092340256846], [174.75399669342406, -41.29331303202726], [174.75473029204403, -41.29127522272122], [174.75609948217414, -41.29111922964217], [174.75575278239475, -41.290214789381324], [174.757153998619, -41.29022943257962], [174.75630446934412, -41.29004137700723], [174.7554916236024, -41.28883877556146], [174.75584021961842, -41.288133829889915], [174.7554214030833, -41.287967946585816], [174.75577471419516, -41.28784286883441], [174.75560127921273, -41.28674397501137], [174.75627982105996, -41.28645365025492], [174.75613718778948, -41.28442897353167], [174.75555161422312, -41.283753141088276], [174.75623611359765, -41.28341804981319], [174.75623086027082, -41.282854844257024], [174.7591673408612, -41.28258143794379], [174.75984114811146, -41.28145770680638], [174.7596880008269, -41.28073079532737], [174.76022854387716, -41.28070541554134], [174.76000420239828, -41.28009521921427], [174.76063040197496, -41.27965950881302], [174.76141563805587, -41.279888023062426], [174.76261974274576, -41.27839009493918], [174.7626220559416, -41.27766412981242], [174.76338410648668, -41.27775232876133], [174.7639424179957, -41.27718489176468], [174.7645970418747, -41.27482400213882], [174.7642229841088, -41.27394504482507], [174.7655580034315, -41.27298999001395], [174.7669420376017, -41.27067101917744], [174.7676489727178, -41.270590997383316], [174.76999395174298, -41.268369970989276], [174.77060799936848, -41.26700296219583], [174.77374000920096, -41.26504297522531], [174.7742489941909, -41.26514004670473], [174.7744649059759, -41.26454523883928], [174.77566538066242, -41.26475465327753], [174.77606731930297, -41.26422929159051], [174.7773037866376, -41.264154459117954], [174.77806077100755, -41.26508743900736], [174.77919126661016, -41.26498829135765], [174.78039720118372, -41.26312983135788], [174.78172885848176, -41.262480464580264], [174.78085922677883, -41.26197395257305], [174.78115793181783, -41.261143176121934], [174.78269615498237, -41.26022656270698], [174.78452162561513, -41.26027445802118], [174.78489089493857, -41.26101060556708], [174.78675781257556, -41.26030686093403], [174.78731933049232, -41.26109656350388], [174.7892085873685, -41.26170592129978], [174.79144518182264, -41.26326449359835], [174.7885519685354, -41.264833635775716], [174.7886928203834, -41.26621723597921], [174.7878414579304, -41.26743872353336], [174.79134002241088, -41.28053982085585], [174.7908552119324, -41.28168160412521], [174.7849031019004, -41.282586879418076], [174.78320379797648, -41.28226463154536], [174.7807460629316, -41.28313366295391], [174.78099028293798, -41.28569536580024], [174.77988040614392, -41.286483105582114], [174.7802019537094, -41.28780073410227], [174.78090683957652, -41.28903816275525], [174.78314772481073, -41.28888385690153], [174.78387707376987, -41.28915727818086], [174.78428199083177, -41.2899878223614], [174.7850576045963, -41.289916168535704], [174.7849480407897, -41.288097294073566], [174.78621274058176, -41.28797751158682], [174.78692090076606, -41.29038630722989], [174.78781997949247, -41.29053250367969], [174.78766141405214, -41.2896792565409], [174.79495829273526, -41.286437778871544], [174.80501350508158, -41.28443356046168], [174.8069179800606, -41.294770417023315], [174.80730283960318, -41.30298626016398], [174.8051078132083, -41.301836118934126], [174.8045845088348, -41.30079949317493], [174.80318347666892, -41.30048818908391], [174.80317036088059, -41.29957866888283], [174.8021697786658, -41.29924306247156], [174.80150336883327, -41.29759617406027], [174.79991666425002, -41.29679234052858], [174.7988665951174, -41.29682677385159], [174.79890123331174, -41.29634885117437], [174.79756613808496, -41.29644177086449], [174.79744665004506, -41.29556993933916], [174.79526429091777, -41.296558767801315], [174.79426996372396, -41.296448174411125], [174.7928821645057, -41.29854145886937], [174.78980682166122, -41.300949215178846], [174.7896327903394, -41.30244711556891], [174.78780024504178, -41.30444817463527], [174.78764979516848, -41.305936697907946], [174.7886655506183, -41.30638928775604], [174.78801006351972, -41.30731820732388], [174.787960189243, -41.30855296644107], [174.78815514015014, -41.31131514177672], [174.78872534871334, -41.31207188983179], [174.78809813137346, -41.31228880289873], [174.78823673984922, -41.31298920879849], [174.78779379889087, -41.31339240708983], [174.78948566173474, -41.31453704195112], [174.7880483554328, -41.31571230293633], [174.7882958058662, -41.316023708642724], [174.78777355225748, -41.31702261264227], [174.78924158876254, -41.320899898750675], [174.78898292760803, -41.323236775763114], [174.7880567742255, -41.32432302347116], [174.78703678361865, -41.32460007663645], [174.7852988647918, -41.326590615290016], [174.7845512772562, -41.32546730988216], [174.78187045150403, -41.323554300848315], [174.78182334873117, -41.32182565421333], [174.7802262293463, -41.320652420918634], [174.77900930996978, -41.318959878661175], [174.77933022512067, -41.318459522183154], [174.77901207544906, -41.317743867308444], [174.777369343104, -41.317084707207336], [174.77727009116518, -41.31650978080578], [174.77555578970313, -41.31629305163662], [174.77537708406277, -41.31543111960689], [174.77413562647197, -41.31546828110961], [174.77222564688373, -41.31464203031571], [174.7725136846227, -41.31380893287223], [174.77150864118727, -41.313311000045076]], [[174.77161171191696, -41.31226457951697], [174.7716238969766, -41.31227339910874], [174.771623653146, -41.312264395674546], [174.77161171191696, -41.31226457951697]], [[174.76049656400963, -41.28802343230196], [174.75995558125408, -41.287961837500276], [174.7604613638386, -41.288224318568204], [174.76049656400963, -41.28802343230196]], [[174.75751057163828, -41.28966338683574], [174.75798883242854, -41.28943182330237], [174.75762925265275, -41.28935647247009], [174.75751057163828, -41.28966338683574]], [[174.75735262258377, -41.29019937806325], [174.75735218163243, -41.2901829508377], [174.75733682547207, -41.29019961928518], [174.75735262258377, -41.29019937806325]], [[174.7573170523681, -41.290208928446], [174.7573170456843, -41.290208679440596], [174.75731629088534, -41.290208940073654], [174.7573170523681, -41.290208928446]], [[174.7572936611138, -41.290227300079536], [174.75730521316365, -41.29021276522438], [174.75726170682015, -41.29022778800311], [174.7572936611138, -41.290227300079536]]]}}]}